SALSAT (TUBSAT 22)
1 46495U 20068K   26032.97802238  .00008632  00000-0  32407-3 0  9994
2 46495  97.8820  28.0663 0012050  61.9502 298.2953 15.27407493294702
CAMSAT XW-3 (CAS-9)
1 50466U 21131B   26032.95815003  .00000518  00000-0  17432-3 0  9997
2 50466  98.5005 126.1144 0004944 135.3942 224.7646 14.41200151215634
ROBUSTA 1F (MTCUBE-2)
1 53109U 22080E   26032.31368699 -.00000003  00000-0  00000-0 0  9992
2 53109  70.1637 345.4938 0009148 318.2383  41.7578  6.42583138 83339
UMKA-1 (RS40S)
1 57172U 23091G   26032.94113109  .00005890  00000-0  28401-3 0  9998
2 57172  97.5258  92.1919 0012210 226.8206 133.2009 15.19030489143469
CUBESX-HSE-3 (RS42S)
1 57178U 23091N   26032.93917206  .00013156  00000-0  49136-3 0  9995
2 57178  97.5289  97.0629 0011142 205.3505 154.7189 15.27449267143754
MONITOR-3 (RS58S)
1 57180U 23091Q   26032.95812691  .00010719  00000-0  43413-3 0  9996
2 57180  97.5284  95.5804 0011818 210.7251 149.3296 15.24795023143668
MONITOR-4 (RS57S)
1 57182U 23091S   26032.94517174  .00010374  00000-0  41932-3 0  9996
2 57182  97.5276  95.5302 0011780 211.2796 148.7742 15.24870450143669
MONITOR-2 (RS39S)
1 57184U 23091U   26032.93796228  .00004840  00000-0  24495-3 0  9992
2 57184  97.5282  92.0953 0010626 217.3397 142.7099 15.17447071143439
SVYATOBOR-1 (RS60S)
1 57187U 23091X   26032.99108005  .00009425  00000-0  39157-3 0  9996
2 57187  97.5289  96.1855 0009445 200.5545 159.5313 15.23996958143706
VIZARD-METEO (RS38S)
1 57189U 23091Z   26032.97095685  .00015558  00000-0  51546-3 0  9995
2 57189  97.5279 100.0969 0007900 184.5928 175.5242 15.31353586143968
NANOZOND-1 (RS49S)
1 57190U 23091AA  26032.94938993  .00105508  00000-0  11458-2 0  9994
2 57190  97.5180 110.6594 0003623 179.6448 180.4813 15.63140783144678
UTMN-2 (RS27S)
1 57203U 23091AP  26032.96837211  .00012523  00000-0  45550-3 0  9997
2 57203  97.5280  98.5585 0008505 189.8368 170.2707 15.28357731143869
KUZGTU-1 (RS47S)
1 57217U 23091AV  26032.95511218  .00011478  00000-0  44274-3 0  9997
2 57217  97.5264  96.2684 0011233 208.1931 151.8700 15.26413544143720
SONATE-2
1 59112U 24043Q   26032.95645160  .00029553  00000-0  55422-3 0  9995
2 59112  97.5353 176.2583 0008280 343.2063  16.8912 15.48569530106890
MESAT-1
1 60209U 24125G   26032.59198265  .00035739  00000-0  62731-3 0  9998
2 60209  97.2491 248.1318 0013988   3.9914 356.1447 15.50346379 88473
POLYTECH UNIVERSE-3 (RS46S)
1 57191U 23091AB  26032.98217236  .00005573  00000-0  27974-3 0  9991
2 57191  97.5256  91.6484 0014798 236.8667 123.1148 15.17621927143434
