[{"OBJECT_NAME":"SALSAT","OBJECT_ID":"2020-068K","EPOCH":"2026-02-01T23:28:21.133632","MEAN_MOTION":15.27407493,"ECCENTRICITY":0.00120503,"INCLINATION":97.882,"RA_OF_ASC_NODE":28.0663,"ARG_OF_PERICENTER":61.9502,"MEAN_ANOMALY":298.2953,"EPHEMERIS_TYPE":0,"CLASSIFICATION_TYPE":"U","NORAD_CAT_ID":46495,"ELEMENT_SET_NO":999,"REV_AT_EPOCH":29470,"BSTAR":0.00032406807,"MEAN_MOTION_DOT":8.632e-5,"MEAN_MOTION_DDOT":0},{"OBJECT_NAME":"XW-3 (CAS-9)","OBJECT_ID":"2021-131B","EPOCH":"2026-02-01T22:59:44.162592","MEAN_MOTION":14.41200151,"ECCENTRICITY":0.00049437,"INCLINATION":98.5005,"RA_OF_ASC_NODE":126.1144,"ARG_OF_PERICENTER":135.3942,"MEAN_ANOMALY":224.7646,"EPHEMERIS_TYPE":0,"CLASSIFICATION_TYPE":"U","NORAD_CAT_ID":50466,"ELEMENT_SET_NO":999,"REV_AT_EPOCH":21563,"BSTAR":0.00017432351,"MEAN_MOTION_DOT":5.18e-6,"MEAN_MOTION_DDOT":0},{"OBJECT_NAME":"GREENCUBE (IO-117)","OBJECT_ID":"2022-080E","EPOCH":"2026-02-01T07:31:42.555936","MEAN_MOTION":6.42583138,"ECCENTRICITY":0.00091479,"INCLINATION":70.1637,"RA_OF_ASC_NODE":345.4938,"ARG_OF_PERICENTER":318.2383,"MEAN_ANOMALY":41.7578,"EPHEMERIS_TYPE":0,"CLASSIFICATION_TYPE":"U","NORAD_CAT_ID":53109,"ELEMENT_SET_NO":999,"REV_AT_EPOCH":8333,"BSTAR":0,"MEAN_MOTION_DOT":-3.0e-8,"MEAN_MOTION_DDOT":0},{"OBJECT_NAME":"UMKA 1 (RS40S)","OBJECT_ID":"2023-091G","EPOCH":"2026-02-01T22:35:13.726176","MEAN_MOTION":15.19030489,"ECCENTRICITY":0.00122096,"INCLINATION":97.5258,"RA_OF_ASC_NODE":92.1919,"ARG_OF_PERICENTER":226.8206,"MEAN_ANOMALY":133.2009,"EPHEMERIS_TYPE":0,"CLASSIFICATION_TYPE":"U","NORAD_CAT_ID":57172,"ELEMENT_SET_NO":999,"REV_AT_EPOCH":14346,"BSTAR":0.00028400533,"MEAN_MOTION_DOT":5.89e-5,"MEAN_MOTION_DDOT":0},{"OBJECT_NAME":"CUBESX-HSE 3 (RS42S)","OBJECT_ID":"2023-091N","EPOCH":"2026-02-01T22:32:24.465984","MEAN_MOTION":15.27449267,"ECCENTRICITY":0.00111418,"INCLINATION":97.5289,"RA_OF_ASC_NODE":97.0629,"ARG_OF_PERICENTER":205.3505,"MEAN_ANOMALY":154.7189,"EPHEMERIS_TYPE":0,"CLASSIFICATION_TYPE":"U","NORAD_CAT_ID":57178,"ELEMENT_SET_NO":999,"REV_AT_EPOCH":14375,"BSTAR":0.00049136172,"MEAN_MOTION_DOT":0.00013156,"MEAN_MOTION_DDOT":0},{"OBJECT_NAME":"MONITOR-3 (RS58S)","OBJECT_ID":"2023-091Q","EPOCH":"2026-02-01T22:59:42.165024","MEAN_MOTION":15.24795023,"ECCENTRICITY":0.00118176,"INCLINATION":97.5284,"RA_OF_ASC_NODE":95.5804,"ARG_OF_PERICENTER":210.7251,"MEAN_ANOMALY":149.3296,"EPHEMERIS_TYPE":0,"CLASSIFICATION_TYPE":"U","NORAD_CAT_ID":57180,"ELEMENT_SET_NO":999,"REV_AT_EPOCH":14366,"BSTAR":0.00043412551,"MEAN_MOTION_DOT":0.00010719,"MEAN_MOTION_DDOT":0},{"OBJECT_NAME":"MONITOR-4 (RS57S)","OBJECT_ID":"2023-091S","EPOCH":"2026-02-01T22:41:02.838336","MEAN_MOTION":15.2487045,"ECCENTRICITY":0.00117797,"INCLINATION":97.5276,"RA_OF_ASC_NODE":95.5302,"ARG_OF_PERICENTER":211.2796,"MEAN_ANOMALY":148.7742,"EPHEMERIS_TYPE":0,"CLASSIFICATION_TYPE":"U","NORAD_CAT_ID":57182,"ELEMENT_SET_NO":999,"REV_AT_EPOCH":14366,"BSTAR":0.00041932268,"MEAN_MOTION_DOT":0.00010374,"MEAN_MOTION_DDOT":0},{"OBJECT_NAME":"MONITOR-2 (RS39S)","OBJECT_ID":"2023-091U","EPOCH":"2026-02-01T22:30:39.940992","MEAN_MOTION":15.17447071,"ECCENTRICITY":0.00106263,"INCLINATION":97.5282,"RA_OF_ASC_NODE":92.0953,"ARG_OF_PERICENTER":217.3397,"MEAN_ANOMALY":142.7099,"EPHEMERIS_TYPE":0,"CLASSIFICATION_TYPE":"U","NORAD_CAT_ID":57184,"ELEMENT_SET_NO":999,"REV_AT_EPOCH":14343,"BSTAR":0.00024494578,"MEAN_MOTION_DOT":4.84e-5,"MEAN_MOTION_DDOT":0},{"OBJECT_NAME":"SVYATOBOR 1 (RS60S)","OBJECT_ID":"2023-091X","EPOCH":"2026-02-01T23:47:09.316320","MEAN_MOTION":15.23996958,"ECCENTRICITY":0.00094449,"INCLINATION":97.5289,"RA_OF_ASC_NODE":96.1855,"ARG_OF_PERICENTER":200.5545,"MEAN_ANOMALY":159.5313,"EPHEMERIS_TYPE":0,"CLASSIFICATION_TYPE":"U","NORAD_CAT_ID":57187,"ELEMENT_SET_NO":999,"REV_AT_EPOCH":14370,"BSTAR":0.00039156778,"MEAN_MOTION_DOT":9.425e-5,"MEAN_MOTION_DDOT":0},{"OBJECT_NAME":"VIZARD-METEO (RS38S)","OBJECT_ID":"2023-091Z","EPOCH":"2026-02-01T23:18:10.671840","MEAN_MOTION":15.31353586,"ECCENTRICITY":0.00078995,"INCLINATION":97.5279,"RA_OF_ASC_NODE":100.0969,"ARG_OF_PERICENTER":184.5928,"MEAN_ANOMALY":175.5242,"EPHEMERIS_TYPE":0,"CLASSIFICATION_TYPE":"U","NORAD_CAT_ID":57189,"ELEMENT_SET_NO":999,"REV_AT_EPOCH":14396,"BSTAR":0.00051546135,"MEAN_MOTION_DOT":0.00015558,"MEAN_MOTION_DDOT":0},{"OBJECT_NAME":"NANOZOND 1 (RS49S)","OBJECT_ID":"2023-091AA","EPOCH":"2026-02-01T22:47:07.289952","MEAN_MOTION":15.63140783,"ECCENTRICITY":0.0003623,"INCLINATION":97.518,"RA_OF_ASC_NODE":110.6594,"ARG_OF_PERICENTER":179.6448,"MEAN_ANOMALY":180.4813,"EPHEMERIS_TYPE":0,"CLASSIFICATION_TYPE":"U","NORAD_CAT_ID":57190,"ELEMENT_SET_NO":999,"REV_AT_EPOCH":14467,"BSTAR":0.0011457674,"MEAN_MOTION_DOT":0.00105508,"MEAN_MOTION_DDOT":0},{"OBJECT_NAME":"POLYTECH-UNIVERSE 3 (RS46S)","OBJECT_ID":"2023-091AB","EPOCH":"2026-02-01T23:34:19.691904","MEAN_MOTION":15.17621927,"ECCENTRICITY":0.00147976,"INCLINATION":97.5256,"RA_OF_ASC_NODE":91.6484,"ARG_OF_PERICENTER":236.8667,"MEAN_ANOMALY":123.1148,"EPHEMERIS_TYPE":0,"CLASSIFICATION_TYPE":"U","NORAD_CAT_ID":57191,"ELEMENT_SET_NO":999,"REV_AT_EPOCH":14343,"BSTAR":0.00027974111,"MEAN_MOTION_DOT":5.573e-5,"MEAN_MOTION_DDOT":0},{"OBJECT_NAME":"UTMN 2 (RS27S)","OBJECT_ID":"2023-091AP","EPOCH":"2026-02-01T23:14:27.350304","MEAN_MOTION":15.28357731,"ECCENTRICITY":0.00085048,"INCLINATION":97.528,"RA_OF_ASC_NODE":98.5585,"ARG_OF_PERICENTER":189.8368,"MEAN_ANOMALY":170.2707,"EPHEMERIS_TYPE":0,"CLASSIFICATION_TYPE":"U","NORAD_CAT_ID":57203,"ELEMENT_SET_NO":999,"REV_AT_EPOCH":14386,"BSTAR":0.00045550121,"MEAN_MOTION_DOT":0.00012523,"MEAN_MOTION_DDOT":0},{"OBJECT_NAME":"KUZGTU 1 (RS47S)","OBJECT_ID":"2023-091AV","EPOCH":"2026-02-01T22:55:21.692352","MEAN_MOTION":15.26413544,"ECCENTRICITY":0.00112329,"INCLINATION":97.5264,"RA_OF_ASC_NODE":96.2684,"ARG_OF_PERICENTER":208.1931,"MEAN_ANOMALY":151.87,"EPHEMERIS_TYPE":0,"CLASSIFICATION_TYPE":"U","NORAD_CAT_ID":57217,"ELEMENT_SET_NO":999,"REV_AT_EPOCH":14372,"BSTAR":0.00044273671,"MEAN_MOTION_DOT":0.00011478,"MEAN_MOTION_DDOT":0},{"OBJECT_NAME":"SONATE-2","OBJECT_ID":"2024-043Q","EPOCH":"2026-02-01T22:57:17.418240","MEAN_MOTION":15.4856953,"ECCENTRICITY":0.00082795,"INCLINATION":97.5353,"RA_OF_ASC_NODE":176.2583,"ARG_OF_PERICENTER":343.2063,"MEAN_ANOMALY":16.8912,"EPHEMERIS_TYPE":0,"CLASSIFICATION_TYPE":"U","NORAD_CAT_ID":59112,"ELEMENT_SET_NO":999,"REV_AT_EPOCH":10689,"BSTAR":0.00055422073,"MEAN_MOTION_DOT":0.00029553,"MEAN_MOTION_DDOT":0},{"OBJECT_NAME":"MESAT1","OBJECT_ID":"2024-125G","EPOCH":"2026-02-01T14:12:27.300960","MEAN_MOTION":15.50346379,"ECCENTRICITY":0.00139879,"INCLINATION":97.2491,"RA_OF_ASC_NODE":248.1318,"ARG_OF_PERICENTER":3.9914,"MEAN_ANOMALY":356.1447,"EPHEMERIS_TYPE":0,"CLASSIFICATION_TYPE":"U","NORAD_CAT_ID":60209,"ELEMENT_SET_NO":999,"REV_AT_EPOCH":8847,"BSTAR":0.00062730663,"MEAN_MOTION_DOT":0.00035739,"MEAN_MOTION_DDOT":0}]
